LEMUR-2-ROUNDTRIPPER    
1 62711U 25009DG  26191.18034679  .00006792  00000+0  49345-3 0  9991
2 62711  97.7237 273.8296 0004379  74.9945 285.1765 15.04178168 81084
LEMUR-2-MYNAMEISJEFF    
1 62712U 25009DH  26191.04575780  .00006729  00000+0  48908-3 0  9994
2 62712  97.7289 274.0900 0003672 109.4233 250.7389 15.04168528 81063
LEMUR-2-LEIA-PHILIP     
1 63246U 25052AN  26191.52575551  .00001175  00000+0  10603-3 0  9995
2 63246  97.6815  83.0813 0005042 130.3106 229.8557 14.97385737 72165
LEMUR-2-LIA-MARTIN      
1 63248U 25052AQ  26191.12148622  .00003770  00000+0  32410-3 0  9991
2 63248  97.6875  83.1935 0005413 102.3403 257.8426 14.98002545 72115
LEMUR-2-DELOITTE-1      
1 63259U 25052BB  26189.69813140  .00002354  00000+0  20556-3 0  9991
2 63259  97.6884  82.1233 0002308  66.8273 293.3192 14.97751965 71914
LEMUR-2-EMERSONROSE     
1 63261U 25052BD  26191.18713981  .00003381  00000+0  28198-3 0  9994
2 63261  97.6882  84.1911 0002796  68.6204 291.5317 14.99261714 72184
LEMUR-2-MARACHE-FRAN    
1 63262U 25052BE  26191.21328215  .00002533  00000+0  20688-3 0  9995
2 63262  97.6852  84.5777 0004672 274.4307  85.6383 15.00296503 72218
LEMUR-2-THEFALCONER     
1 63264U 25052BG  26190.12857510  .00002526  00000+0  22141-3 0  9999
2 63264  97.6850  82.1435 0000734  22.7964 337.3291 14.97544949 71973
LEMUR-2-UNTITLED-SC     
1 63351U 25061A   26191.36003445  .00002328  00000+0  13282-3 0  9999
2 63351  97.5647 166.5561 0018692 179.4862 180.6392 15.13626636 71096
LEMUR-2-ESPERANZA       
1 63352U 25061B   26191.60012572  .00002322  00000+0  13207-3 0  9999
2 63352  97.5654 166.8936 0018328 177.8917 182.2395 15.13735521 71133
LEMUR-2-KREMPEL-BRO2    
1 63353U 25061C   26191.35604734  .00002542  00000+0  14248-3 0  9999
2 63353  97.5701 167.2141 0019484 171.4566 188.7001 15.14158603 71118
LEMUR-2-THERMORAPTOR    
1 63354U 25061D   26191.60119683  .00002413  00000+0  13515-3 0  9995
2 63354  97.5705 167.5381 0019290 169.5482 190.6154 15.14243165 71155
LEMUR-2-LANGER2SPACE    
1 63358U 25061H   26191.47283575  .00002547  00000+0  14175-3 0  9997
2 63358  97.5624 167.0395 0016942 171.1205 189.0330 15.14445813 71143
LEMUR-2-BALTO           
1 63395U 25052BH  26191.13110204  .00003644  00000+0  29517-3 0  9994
2 63395  97.6934  84.4803 0005407 348.2785  11.8312 15.00335374 72204
LEMUR-2-KRISH           
1 64561U 25135AK  26191.27911249  .00003597  00000+0  32233-3 0  9991
2 64561  97.7764 306.0004 0001701  98.2728 261.8686 14.96425392 57376
LEMUR-2-HUBBLE-4        
1 64565U 25135AP  26191.25090494  .00001080  00000+0  10748-3 0  9995
2 64565  97.7714 304.8882 0002273 176.7097 183.4138 14.93675738 57314
LEMUR-2-HUBBLE-5        
1 64840U 25135BT  26190.25698740  .00001340  00000+0  13040-3 0  9995
2 64840  97.7734 304.5681 0004115 260.6132  99.4623 14.94201118 57207
LEMUR-2-KARENDARRELL    
1 64841U 25135BU  26189.86116779  .00004672  00000+0  37564-3 0  9996
2 64841  97.7693 306.0385 0011750 124.4354 235.7982 15.00440878 57261
LEMUR-2-LUCILLE-ROSE    
1 65403U 25135BV  26191.56848681  .00004297  00000+0  34557-3 0  9997
2 65403  97.7711 307.7797 0014275 203.3364 156.7213 15.00454746 52145
LEMUR-2-AFFIE-WAUWIE    
1 66295U 25248C   26191.46663470  .00015199  00000+0  55347-3 0  9995
2 66295  45.3904 348.7732 0008592 227.3081 132.7085 15.28120694 38157
OTTER SDM               
1 66678U 25276N   26190.17264076  .00004363  00000+0  20565-3 0  9992
2 66678  97.4202 263.2859 0004240 282.7766  77.2995 15.20009823 33759
LEMUR-2-STAS-GORBUK     
1 66686U 25276W   26191.50946469  .00003457  00000+0  16544-3 0  9997
2 66686  97.4241 264.6532 0003441 272.2364  87.8477 15.19628304 33957
LEMUR-2-TEODOR          
1 66768U 25276DG  26191.13875512  .00004087  00000+0  18579-3 0  9997
2 66768  97.4142 264.5538 0002300  92.7088 267.4411 15.21303330 33938
LEMUR-2-LAILA           
1 66776U 25276DQ  26189.72822619  .00003860  00000+0  17456-3 0  9999
2 66776  97.4166 263.2996 0002898 104.2252 255.9306 15.21517643 33727
LEMUR-2-CELIJO-SB-PK    
1 66781U 25276DW  26189.71530559  .00004042  00000+0  32738-3 0  9996
2 66781  97.5199 259.7831 0007336  80.2189 279.9863 15.00241883 25858
